O3B MPOWER F1           
1 54755U 22174A   24216.39515920 -.00000030  00000+0  00000+0 0  9993
2 54755   0.0588 348.1392 0006756 140.8671  13.6062  5.00113950 31208
